ATLAS CENTAUR 2         
1 00694U 63047A   26093.57060601  .00004323  00000+0  51639-3 0  9992
2 00694  30.3579  56.5832 0547169 299.5752  55.1393 14.12181743135140
THOR AGENA D R/B        
1 00733U 64002A   26093.64051957  .00000335  00000+0  13664-3 0  9995
2 00733  99.1209 108.3372 0032863 184.1154 175.9764 14.34034233241873
SL-3 R/B                
1 00877U 64053B   26093.80708082  .00000478  00000+0  11648-3 0  9994
2 00877  65.0757 257.5944 0080598 284.3220  74.8941 14.61387341270461
SL-8 R/B                
1 02802U 67045B   26093.76440519  .00000484  00000+0  14138-3 0  9995
2 02802  74.0103 301.2608 0065024 302.0269  57.4582 14.45643138 92649
SL-8 R/B                
1 03230U 68040B   26093.86443089  .00006725  00000+0  49357-3 0  9998
2 03230  74.0292 262.2423 0023329  75.7326 284.6451 15.03443489 93793
OAO 2                   
1 03597U 68110A   26093.20456574  .00000404  00000+0  11395-3 0  9992
2 03597  34.9922 128.3459 0005270  29.0054 331.0929 14.47322613 22656
ISIS 1                  
1 03669U 69009A   26093.67676998  .00000216  00000+0  14232-3 0  9999
2 03669  88.4493 152.5804 1707793  38.7564 332.4321 11.30420961351356
SERT 2                  
1 04327U 70009A   26093.80727412  .00000049  00000+0  12325-3 0  9991
2 04327  99.2793  35.5310 0005737  98.5044 316.2867 13.58732519783304
SL-3 R/B                
1 05118U 71028B   26093.82847793  .00072641  00000+0  77543-3 0  9999
2 05118  81.2384  20.9322 0015218 183.3651 176.7504 15.63512239992596
ASTEX 1                 
1 05560U 71089A   26093.72149679  .00000802  00000+0  20365-3 0  9994
2 05560  92.7083 159.8489 0015650   8.9309 351.2173 14.50797203865938
SL-8 R/B                
1 05730U 71119B   26093.49206369  .00011745  00000+0  61310-3 0  9994
2 05730  73.8841 129.3429 0546047  90.7186 275.6538 14.38331306659058
OAO 3 (COPERNICUS)      
1 06153U 72065A   26093.48352936  .00000544  00000+0  11585-3 0  9990
2 06153  35.0046 156.0505 0006668 358.3210  18.8399 14.60019052849822
ATLAS CENTAUR R/B       
1 06155U 72065B   26093.48970371  .00002047  00000+0  28105-3 0  9997
2 06155  35.0007 160.4063 0033885 219.8369 139.9843 14.77763294844934
SL-8 R/B                
1 08459U 75112B   26093.82252469  .00000374  00000+0  13157-3 0  9993
2 08459  74.0622 332.6827 0014689  55.7398 304.5145 14.38218996635484
SL-3 R/B                
1 10114U 77057B   26093.83472788  .00022344  00000+0  45487-3 0  9995
2 10114  97.5801 266.8808 0007222 183.0746 177.0460 15.46255401672215
SEASAT 1                
1 10967U 78064A   26093.88213785  .00000555  00000+0  19330-3 0  9993
2 10967 108.0068 178.3579 0002722 273.0152  87.0682 14.46183374510155
SL-14 R/B               
1 11267U 79011B   26093.86555070  .00001139  00000+0  10985-3 0  9990
2 11267  82.5218  72.6738 0015385 339.0562  21.0025 14.91945015532535
